# From MPC105543
P/2016 S1 (PANSTARRS),e,94.7314,227.6550,273.2517,8.275553,0.0414008,0.71042294,89.0597,02/05.0/2023,2000,g 12.0,4.0
# From MPC106345
P/2016 WM48 (Lemmon),e,117.5880,59.9359,36.1446,8.169619,0.0422086,0.78348800,91.6989,02/05.0/2023,2000,g 15.0,4.0
# From MPEC 2021-P47
C/2016 X1 (Lemmon),e,26.4593,256.3392,224.4809,1379,0.0000192,0.99452133,0.0000,04/27.9155/2019,2000,g  6.0,4.0
# From MPC114598
C/2017 AB5 (PANSTARRS),e,32.4668,42.5946,78.2814,2777,0.0000067,0.99668556,0.0000,02/14.6449/2018,2000,g  5.5,4.0
# From MPEC 2022-OB6
C/2017 B3 (LINEAR),h,02/01.3652/2019,54.1597,2.1758,284.8330,1.000221,3.929839,2000,6.0,4.0
# From MPC103847
P/2017 B4 (PANSTARRS),e,20.0584,121.4578,11.0197,4.410520,0.1064068,0.36495152,359.9130,01/05.0/2017,2000,g 14.5,4.0
# From MPEC 2022-OB6
P/2017 D1 (Fuls),e,20.7678,82.1904,7.9532,4.827614,0.0929192,0.43701592,224.6618,02/05.0/2023,2000,g 14.0,4.0
# From MPEC 2022-OB6
P/2017 D4 (PANSTARRS),e,10.5504,264.9458,212.1238,7.548142,0.0475274,0.62905406,111.3881,02/05.0/2023,2000,g 13.0,4.0
# From MPC104794
P/2017 G1 (PANSTARRS),e,4.7845,249.6791,224.3455,7.275007,0.0502289,0.65381101,124.2908,02/05.0/2023,2000,g 13.5,4.0
# From MPC108595
P/2017 G2 (PANSTARRS),e,47.9615,79.8468,105.3981,8.050449,0.0431493,0.64755841,89.1849,02/05.0/2023,2000,g 13.0,4.0
# From MPC115882
C/2017 K1 (PANSTARRS),h,03/17.6897/2018,154.0220,225.7380,4.4034,1.003326,7.281216,2000,7.0,4.0
# From MPEC 2023-BF4
C/2017 K2 (PANSTARRS),h,12/19.6884/2022,87.5634,88.2359,236.2012,1.000797,1.796890,2000,1.5,4.0
# From MPEC 2021-N06
P/2017 K3 (Gasparovic),e,4.2734,354.2980,253.4121,5.584972,0.0746745,0.57907194,155.2671,02/05.0/2023,2000,g 14.5,4.0
# From MPEC 2021-P47
C/2017 K5 (PANSTARRS),h,03/27.3632/2020,82.2558,102.3910,172.0696,1.005121,7.684288,2000,5.0,4.0
# From MPEC 2022-OB6
C/2017 M4 (ATLAS),h,01/17.9757/2019,105.6374,65.9748,167.6004,1.001211,3.251183,2000,6.0,4.0
# From MPC118841
C/2017 M5 (TOTAS),h,06/04.0547/2018,15.8608,216.2885,92.8762,1.004936,6.006443,2000,6.5,4.0
# From MPC114599
P/2017 P1 (PANSTARRS),e,7.6891,221.3612,122.7527,7.914319,0.0442674,0.31078700,74.7254,02/05.0/2023,2000,g 10.0,4.0
# From MPC114599
C/2017 S3 (PANSTARRS),h,08/16.7828/2018,99.1916,171.2811,255.7957,1.000094,0.204692,2000,12.9,4.0
# From MPC109591
C/2017 S6 (Catalina),h,02/26.2833/2018,152.8628,131.1500,135.0619,1.001024,1.552432,2000,12.5,4.0
# From MPEC 2022-OB6
P/2017 S8 (PANSTARRS),e,29.8487,191.5189,254.8594,2.778150,0.2128485,0.39081975,30.3924,02/05.0/2023,2000,g 16.0,4.0
# From MPC114600
C/2017 T1 (Heinze),e,96.9271,102.6145,97.0421,10637,0.0000009,0.99994490,0.0000,02/20.6072/2018,2000,g 14.5,4.0
# From MPEC 2022-YN2
C/2017 T2 (PANSTARRS),e,57.2656,64.4150,92.9191,1572,0.0000158,0.99897362,0.0000,05/04.8231/2020,2000,g  5.0,4.0
# From MPC114600
C/2017 T3 (ATLAS),e,88.2605,230.2328,246.7960,1252,0.0000223,0.99934254,0.0000,07/19.2775/2018,2000,g 10.0,4.0
# From MPC115882
P/2017 TW13 (Lemmon),e,44.8503,322.2525,119.9137,7.135416,0.0517101,0.71030924,87.3433,02/05.0/2023,2000,g 15.0,2.0
# From MPEC 2022-K19
P/2017 U3 (PANSTARRS),e,15.9182,165.1068,296.2643,4.924612,0.0901874,0.09968227,125.8086,02/05.0/2023,2000,g 11.0,4.0
# From MPEC 2021-P47
C/2017 U4 (PANSTARRS),e,158.2019,245.9090,158.9765,11966,0.0000008,0.99935449,0.0000,09/21.5792/2018,2000,g  7.0,4.0
# From MPEC 2023-A50
C/2017 U7 (PANSTARRS),h,09/15.3147/2019,142.6141,276.2685,326.4284,1.001690,6.428179,2000,8.3,2.0
# From MPC114601
P/2017 W3 (Gibbs),e,18.1683,210.2074,327.8124,7.831018,0.0449756,0.50632819,81.1521,02/05.0/2023,2000,g 10.5,4.0
# From MPEC 2021-R75
C/2017 X1 (PANSTARRS),e,31.3379,251.1577,283.1293,31.00529,0.0057089,0.84959189,9.6884,02/05.0/2023,2000,g 10.0,4.0
# From MPEC 2022-QD9
C/2017 Y2 (PANSTARRS),h,11/05.1001/2020,128.4369,66.0124,147.9355,1.001445,4.632612,2000,15.0,4.0
# From MPC111770
P/2017 Y3 (Leonard),e,27.5657,153.8599,67.5751,9.820687,0.0320252,0.86943469,58.3678,02/05.0/2023,2000,g 16.5,4.0
# From MPEC 2021-P47
C/2018 A3 (ATLAS),e,139.5380,194.2936,86.3516,365.8502,0.0001408,0.99103798,0.0000,01/10.8451/2019,2000,g  8.5,4.0
# From MPC114601
C/2018 A4 (PANSTARRS),e,3.1507,97.5793,355.9557,12.18437,0.0231739,0.80387962,39.9167,02/05.0/2023,2000,g 14.0,4.0
# From MPC109147
P/2018 A5 (PANSTARRS),e,23.6105,87.7913,359.4866,5.628321,0.0738135,0.52344028,144.6516,02/05.0/2023,2000,g 15.0,4.0
# From MPEC 2022-ST7
C/2018 A6 (Gibbs),e,77.0617,340.3837,264.3510,15.04953,0.0168818,0.79946556,22.0217,02/05.0/2023,2000,g  9.0,4.0
# From MPEC 2022-O08
C/2018 B1 (Lemmon),e,162.4185,133.1918,68.4058,3634,0.0000045,0.99858788,0.0000,03/27.2112/2018,2000,g  9.0,4.0
# From MPC114601
P/2018 C1 (Lemmon-Read),e,5.1114,270.3319,235.6949,5.652414,0.0733421,0.53204348,132.5757,02/05.0/2023,2000,g 13.5,4.0
# From MPC114601
C/2018 C2 (Lemmon),e,34.4633,91.2608,134.0018,32704,0.0000002,0.99994005,0.0000,05/31.2123/2018,2000,g 13.0,4.0
# From MPEC 2022-M88
C/2018 DO4 (Lemmon),e,160.4425,251.4364,176.3045,25.34348,0.0077251,0.90477275,9.7962,02/05.0/2023,2000,g 11.0,4.0
# From MPC114602
C/2018 E1 (ATLAS),e,72.5013,146.8306,299.2832,53.86607,0.0024931,0.95002860,4.3723,02/05.0/2023,2000,g 10.5,4.0
# From MPC114602
C/2018 EN4 (NEOWISE),e,81.9423,136.1290,35.0198,17.91133,0.0130021,0.91842761,22.2196,02/05.0/2023,2000,g 15.0,4.0
# From MPC114602
C/2018 EF9 (Lemmon),e,84.6263,172.5600,72.6345,450.8437,0.0001030,0.99653531,0.0000,05/21.1072/2018,2000,g 18.0,2.0
# From MPEC 2021-R75
C/2018 F1 (Grauer),e,46.0805,177.2765,71.5853,240.0291,0.0002650,0.98751358,0.0000,12/11.9117/2018,2000,g 11.5,4.0
# From MPEC 2023-A50
C/2018 F4 (PANSTARRS),e,78.0838,26.5155,263.2196,9283,0.0000011,0.99962903,0.0000,12/03.1317/2019,2000,g 11.0,6.0
# From MPEC 2021-Y10
C/2018 F4-A,e,78.0840,26.5157,263.2164,8123,0.0000013,0.99957606,0.0000,12/03.1199/2019,2000,g 11.0,6.0
# From MPEC 2021-W31
C/2018 F4-B,e,78.0847,26.5153,263.2014,10507,0.0000009,0.99967228,0.0000,12/03.0561/2019,2000,g 11.0,6.0
# From MPC114602
P/2018 H2 (PANSTARRS),e,7.4262,67.8242,120.0879,4.383625,0.1073876,0.54230567,198.2149,02/05.0/2023,2000,g 16.6,2.0
# From MPC114602
C/2018 K1 (Weiland),e,164.1872,260.1892,325.2490,30.22131,0.0059324,0.93777200,10.4649,02/05.0/2023,2000,g 14.9,4.0
# From MPEC 2021-R75
C/2018 KJ3 (Lemmon),e,136.6719,91.6546,217.6638,944.9573,0.0000339,0.99616195,0.0000,09/09.9827/2019,2000,g 12.2,2.0
# From MPC114602
P/2018 L1 (PANSTARRS),e,10.5792,268.6128,18.0376,3.653880,0.1411148,0.48178074,218.2236,02/05.0/2023,2000,g 15.0,4.0
# From MPEC 2021-P47
C/2018 L2 (ATLAS),e,67.2551,243.0003,56.3289,257.1224,0.0002391,0.99332483,0.0000,12/02.1555/2018,2000,g 10.0,4.0
# From MPC114603
P/2018 L4 (PANSTARRS),e,26.6173,145.1759,140.6173,4.945536,0.0896157,0.65902438,147.8945,02/05.0/2023,2000,g 17.5,4.0
# From MPC119996
P/2018 L5 (Leonard),e,2.2088,219.0402,93.9621,3.628960,0.1425709,0.36422081,247.5558,02/05.0/2023,2000,g 14.5,4.0
# From MPC117070
C/2018 M1 (Catalina),e,37.2814,339.4194,14.2455,21.50452,0.0098835,0.93928650,16.5065,02/05.0/2023,2000,g 15.5,4.0
# From MPEC 2022-M21
C/2018 N1 (NEOWISE),e,159.4092,292.5418,354.7348,511.0472,0.0000853,0.99743880,0.0000,08/02.9114/2018,2000,g 15.5,4.0
# From MPEC 2022-YN2
C/2018 N2 (ASASSN),h,11/11.3708/2019,77.5544,25.2035,24.4863,1.000960,3.127847,2000,6.0,4.0
# From MPC114603
C/2018 O1 (ATLAS),e,153.9989,87.7887,162.7092,28.08997,0.0066203,0.94454055,10.7078,02/05.0/2023,2000,g 17.0,4.0
# From MPEC 2022-M21
P/2018 P3 (PANSTARRS),e,8.9146,59.1595,305.9890,3.004102,0.1892919,0.41712692,298.5355,02/05.0/2023,2000,g 14.5,4.0
# From MPC114603
P/2018 P4 (PANSTARRS),e,23.1082,353.0647,8.4365,6.684905,0.0570245,0.45056277,88.3218,02/05.0/2023,2000,g 12.0,4.0
# From MPEC 2021-P47
C/2018 P5 (PANSTARRS),e,7.2469,216.1967,131.9742,12.84531,0.0214085,0.64289720,30.7829,02/05.0/2023,2000,g 11.0,4.0
# From MPC118841
C/2018 R3 (Lemmon),e,69.7136,324.5867,112.7424,1569,0.0000159,0.99918225,0.0000,06/07.7976/2019,2000,g  9.5,4.0
# From MPEC 2022-M21
C/2018 R4 (Fuls),e,11.6678,298.5464,345.3156,344.7889,0.0001539,0.99500009,0.0000,03/02.5009/2018,2000,g 14.0,4.0
# From MPC114603
C/2018 R5 (Lemmon),e,103.7473,171.1193,178.2075,22.89999,0.0089940,0.84137594,13.3712,02/05.0/2023,2000,g 11.5,4.0
# From MPEC 2022-QC6
C/2018 S2 (TESS),e,64.1521,85.0990,290.8137,14.36060,0.0181111,0.61878984,28.0957,02/05.0/2023,2000,g  7.5,4.0
# From MPEC 2023-A50
C/2018 U1 (Lemmon),h,11/03.1537/2021,108.3162,75.4910,180.4754,1.001533,4.992898,2000,5.0,4.0
# From MPC114604
C/2018 V1 (Machholz-Fujikawa-Iwamoto),h,12/02.8273/2018,144.0980,129.0728,89.1161,1.000358,0.390436,2000,12.0,4.0
# From MPC115884
C/2018 V2 (ATLAS),e,159.1675,357.0799,319.0244,25.06874,0.0078525,0.90086490,12.0348,02/05.0/2023,2000,g 15.0,4.0
# From MPEC 2023-A50
P/2018 VN2 (Leonard),e,18.2563,226.4468,138.8803,4.061997,0.1203912,0.47870416,205.0818,02/05.0/2023,2000,g 15.0,4.0
# From MPEC 2022-VC5
A/2018 V3,e,164.9634,308.7019,3.6084,127.5279,0.0006844,0.98948761,0.0000,09/09.2192/2019,2000,g 15.7,2.0
# From MPEC 2022-M21
C/2018 V4 (Africano),e,69.0262,78.2801,359.9477,201.5884,0.0003444,0.98415070,0.0000,03/01.5409/2019,2000,g 12.5,4.0
# From MPEC 2021-P47
P/2018 V5 (Trujillo-Sheppard),e,10.5887,171.2862,260.6699,8.960961,0.0367428,0.47556724,58.2444,02/05.0/2023,2000,g 12.5,4.0
# From MPEC 2021-P47
C/2018 W1 (Catalina),e,83.3761,233.6604,251.2086,21.68490,0.0097604,0.93734249,13.3236,02/05.0/2023,2000,g 15.5,2.0
# From MPEC 2021-P47
C/2018 W2 (Africano),h,09/05.3277/2019,116.6252,181.8191,158.0732,1.000585,1.460973,2000,9.5,4.0
# From MPEC 2023-A50
A/2018 W3,e,104.8184,251.6722,313.9664,694.6163,0.0000538,0.99382322,0.0000,04/13.0637/2021,2000,g 10.5,2.0
# From MPC119996
C/2018 X2 (Fitzsimmons),e,23.0723,340.8090,161.9503,139.6985,0.0005969,0.98481869,0.0000,07/08.2598/2019,2000,g 12.0,4.0
# From MPC114604
C/2018 X3 (PANSTARRS),e,43.4089,78.8274,359.7465,12.37443,0.0226421,0.78252115,33.8918,02/05.0/2023,2000,g 14.5,4.0
# From MPC118842
